NORAD_CAT_ID,OBJECT_NAME,OBJECT_TYPE,EPOCH,MEAN_MOTION,ECCENTRICITY,INCLINATION,RA_OF_ASC_NODE,ARG_OF_PERICENTER,MEAN_ANOMALY,BSTAR,MEAN_MOTION_DOT,MEAN_MOTION_DDOT,TLE_LINE0,TLE_LINE1,TLE_LINE2,SEMIMAJOR_AXIS,PERIOD,APOGEE,PERIGEE,DECAYED
55283.0,STARLINK-5317,PAYLOAD,2023-09-13 01:32:13,14.98332535,0.0002887,70.001,175.3847,269.1744,90.9084,8.8569e-05,9.64e-06,0.0,0 STARLINK-5317,1 55283U 23010Q   23256.06405067  .00000964  00000-0  88569-4 0  9994,2 55283  70.0010 175.3847 0002887 269.1744  90.9084 14.98332535 36378,6950.185,96.107,574.057,570.044,0.0
55283.0,STARLINK-5317,PAYLOAD,2023-09-13 04:44:29,14.98333739,0.0002801,70.0014,175.049,267.4654,92.6185,0.00010157,1.119e-05,0.0,0 STARLINK-5317,1 55283U 23010Q   23256.19756944  .00001119  00000-0  10157-3 0  9991,2 55283  70.0014 175.0490 0002801 267.4654  92.6185 14.98333739 36693,6950.181,96.107,573.993,570.1,0.0
55283.0,STARLINK-5317,PAYLOAD,2023-09-13 20:45:51,14.9832925,0.0002771,70.0026,173.3653,265.3045,94.7798,-1.8768e-05,-3.17e-06,0.0,0 STARLINK-5317,1 55283U 23010Q   23256.86517424 -.00000317  00000-0 -18768-4 0  9991,2 55283  70.0026 173.3653 0002771 265.3045  94.7798 14.98329250 36792,6950.195,96.107,573.986,570.134,0.0
55283.0,STARLINK-5317,PAYLOAD,2023-09-14 01:34:14,14.98345636,0.0002796,70.0006,172.8587,265.2512,94.8327,-0.00026249,-3.225e-05,0.0,0 STARLINK-5317,1 55283U 23010Q   23257.06544993 -.00003225  00000-0 -26249-3 0  9998,2 55283  70.0006 172.8587 0002796 265.2512  94.8327 14.98345636 36521,6950.145,96.106,573.953,570.066,0.0
55283.0,STARLINK-5317,PAYLOAD,2023-09-14 04:46:31,14.9833541,0.0002754,70.0014,172.5235,263.2675,96.8171,-5.0574e-05,-6.96e-06,0.0,0 STARLINK-5317,1 55283U 23010Q   23257.19897104 -.00000696  00000-0 -50574-4 0  9995,2 55283  70.0014 172.5235 0002754 263.2675  96.8171 14.98335410 36842,6950.176,96.107,573.955,570.127,0.0
55283.0,STARLINK-5317,PAYLOAD,2023-09-14 20:47:52,14.98325432,0.0002463,70.0021,170.8412,256.2201,103.8684,1.2673e-05,5.8e-07,0.0,0 STARLINK-5317,1 55283U 23010Q   23257.86657549  .00000058  00000-0  12673-4 0  9994,2 55283  70.0021 170.8412 0002463 256.2201 103.8684 14.98325432 36944,6950.207,96.107,573.784,570.36,0.0
55283.0,STARLINK-5317,PAYLOAD,2023-09-15 04:48:32,14.98325392,0.000254,70.0018,169.9978,253.8463,106.2416,1.8132e-05,1.23e-06,0.0,0 STARLINK-5317,1 55283U 23010Q   23258.20037611  .00000123  00000-0  18132-4 0  9994,2 55283  70.0018 169.9978 0002540 253.8463 106.2416 14.98325392 36692,6950.207,96.107,573.837,570.307,0.0
55283.0,STARLINK-5317,PAYLOAD,2023-09-16 03:14:24,14.98332829,0.000274,70.001,167.6421,265.0152,95.0695,0.00011585,1.29e-05,0.0,0 STARLINK-5317,1 55283U 23010Q   23259.13500837  .00001290  00000-0  11585-3 0  9992,2 55283  70.0010 167.6421 0002740 265.0152  95.0695 14.98332829 36837,6950.184,96.107,573.953,570.145,0.0
55283.0,STARLINK-5317,PAYLOAD,2023-09-16 17:39:37,14.98325351,0.0002294,70.0021,166.1268,255.9774,104.113,0.00010803,1.196e-05,0.0,0 STARLINK-5317,1 55283U 23010Q   23259.73585290  .00001196  00000-0  10803-3 0  9991,2 55283  70.0021 166.1268 0002294 255.9774 104.1130 14.98325351 36922,6950.207,96.107,573.667,570.478,0.0
55283.0,STARLINK-5317,PAYLOAD,2023-09-17 03:16:26,14.9831825,0.0002979,70.0003,165.1164,270.5678,89.514,0.00028359,3.291e-05,0.0,0 STARLINK-5317,1 55283U 23010Q   23260.13641446  .00003291  00000-0  28359-3 0  9996,2 55283  70.0003 165.1164 0002979 270.5678  89.5140 14.98318250 37289,6950.229,96.108,574.165,570.024,0.0
55283.0,STARLINK-5317,PAYLOAD,2023-09-18 01:42:18,14.9834596,0.0002652,70.0007,162.7602,265.3712,94.7144,-0.00012821,-1.623e-05,0.0,0 STARLINK-5317,1 55283U 23010Q   23261.07104464 -.00001623  00000-0 -12821-3 0  9990,2 55283  70.0007 162.7602 0002652 265.3712  94.7144 14.98345960 37125,6950.144,96.106,573.852,570.165,0.0
55283.0,STARLINK-5317,PAYLOAD,2023-09-18 03:18:26,14.98340992,0.0002982,70.0009,162.5925,261.627,98.4551,7.6952e-05,8.26e-06,0.0,0 STARLINK-5317,1 55283U 23010Q   23261.13780163  .00000826  00000-0  76952-4 0  9991,2 55283  70.0009 162.5925 0002982 261.6270  98.4551 14.98340992 37434,6950.159,96.106,574.096,569.951,0.0
55283.0,STARLINK-5317,PAYLOAD,2023-09-18 17:43:39,14.98332076,0.0002821,70.0009,161.0771,280.0661,80.018,5.174e-05,5.24e-06,0.0,0 STARLINK-5317,1 55283U 23010Q   23261.73864801  .00000524  00000-0  51740-4 0  9992,2 55283  70.0009 161.0771 0002821 280.0661  80.0180 14.98332076 37224,6950.186,96.107,574.012,570.091,0.0
55283.0,STARLINK-5317,PAYLOAD,2023-09-18 20:55:55,14.98330986,0.000296,70.0005,160.7403,270.2819,89.8001,2.8469e-05,2.47e-06,0.0,0 STARLINK-5317,1 55283U 23010Q   23261.87216816  .00000247  00000-0  28469-4 0  9998,2 55283  70.0005 160.7403 0002960 270.2819  89.8001 14.98330986 37540,6950.19,96.107,574.112,569.998,0.0
55283.0,STARLINK-5317,PAYLOAD,2023-09-19 17:45:39,14.9832973,0.0002612,70.0011,158.5528,260.6714,99.415,0.00012576,1.408e-05,0.0,0 STARLINK-5317,1 55283U 23010Q   23262.74004335  .00001408  00000-0  12576-3 0  9997,2 55283  70.0011 158.5528 0002612 260.6714  99.4150 14.98329730 37379,6950.194,96.107,573.874,570.243,0.0
55283.0,STARLINK-5317,PAYLOAD,2023-09-20 03:22:28,14.98317451,0.0002451,70.0017,157.5435,265.3226,94.7654,0.00026309,3.047e-05,0.0,0 STARLINK-5317,1 55283U 23010Q   23263.14060837  .00003047  00000-0  26309-3 0  9991,2 55283  70.0017 157.5435 0002451 265.3226  94.7654 14.98317451 37433,6950.232,96.108,573.8,570.393,0.0
55283.0,STARLINK-5317,PAYLOAD,2023-09-20 20:59:57,14.98319933,0.0002624,70.0026,155.6962,235.6157,124.4754,-7.3853e-05,-9.74e-06,0.0,0 STARLINK-5317,1 55283U 23010Q   23263.87497547 -.00000974  00000-0 -73853-4 0  9998,2 55283  70.0026 155.6962 0002624 235.6157 124.4754 14.98319933 37846,6950.224,96.108,573.913,570.265,0.0
55283.0,STARLINK-5317,PAYLOAD,2023-09-21 03:24:30,14.98317692,0.0002402,70.0014,155.0169,260.7856,99.3032,-6.7344e-05,-8.96e-06,0.0,0 STARLINK-5317,1 55283U 23010Q   23264.14201953 -.00000896  00000-0 -67344-4 0  9994,2 55283  70.0014 155.0169 0002402 260.7856  99.3032 14.98317692 37585,6950.231,96.108,573.765,570.427,0.0
55283.0,STARLINK-5317,PAYLOAD,2023-09-21 17:49:42,14.98325656,0.0002756,70.0014,153.5039,266.4511,93.6333,6.3644e-06,-1.7e-07,0.0,0 STARLINK-5317,1 55283U 23010Q   23264.74285265 -.00000017  00000-0  63644-5 0  9992,2 55283  70.0014 153.5039 0002756 266.4511  93.6333 14.98325656 37677,6950.206,96.107,573.987,570.156,0.0
55283.0,STARLINK-5317,PAYLOAD,2023-09-21 21:01:58,14.98326742,0.0002519,70.0021,153.1682,262.7796,97.3076,3.5176e-05,3.27e-06,0.0,0 STARLINK-5317,1 55283U 23010Q   23264.87637175  .00000327  00000-0  35176-4 0  9998,2 55283  70.0021 153.1682 0002519 262.7796  97.3076 14.98326742 37993,6950.203,96.107,573.819,570.317,0.0
55283.0,STARLINK-5317,PAYLOAD,2023-09-22 03:26:30,14.9833248,0.0002625,70.0015,152.4938,263.1951,96.8909,5.0832e-05,5.14e-06,0.0,0 STARLINK-5317,1 55283U 23010Q   23265.14340768  .00000514  00000-0  50832-4 0  9992,2 55283  70.0015 152.4938 0002625 263.1951  96.8909 14.98332480 37735,6950.185,96.107,573.875,570.226,0.0
55283.0,STARLINK-5317,PAYLOAD,2023-09-22 21:03:59,14.98325481,0.0002605,70.0012,150.6422,252.6484,107.439,0.00021661,2.492e-05,0.0,0 STARLINK-5317,1 55283U 23010Q   23265.87776740  .00002492  00000-0  21661-3 0  9999,2 55283  70.0012 150.6422 0002605 252.6484 107.4390 14.98325481 38144,6950.207,96.107,573.882,570.261,0.0
55283.0,STARLINK-5317,PAYLOAD,2023-09-23 01:52:23,14.98325603,0.0002587,70.0013,150.1367,248.6902,111.3981,0.00023945,2.765e-05,0.0,0 STARLINK-5317,1 55283U 23010Q   23266.07804735  .00002765  00000-0  23945-3 0  9998,2 55283  70.0013 150.1367 0002587 248.6902 111.3981 14.98325603 38176,6950.206,96.107,573.87,570.273,0.0
55283.0,STARLINK-5317,PAYLOAD,2023-09-23 17:53:44,14.98329014,0.000271,70.0016,148.4551,263.3166,96.7684,-3.2251e-05,-4.78e-06,0.0,0 STARLINK-5317,1 55283U 23010Q   23266.74565291 -.00000478  00000-0 -32251-4 0  9995,2 55283  70.0016 148.4551 0002710 263.3166  96.7684 14.98329014 37971,6950.196,96.107,573.944,570.177,0.0
55283.0,STARLINK-5317,PAYLOAD,2023-09-24 01:54:24,14.98334185,0.0002897,70.0002,147.6107,263.3581,96.7249,-6.2187e-06,-1.67e-06,0.0,0 STARLINK-5317,1 55283U 23010Q   23267.07944797 -.00000167  00000-0 -62187-5 0  9991,2 55283  70.0002 147.6107 0002897 263.3581  96.7249 14.98334185 38323,6950.18,96.107,574.058,570.031,0.0
55283.0,STARLINK-5317,PAYLOAD,2023-09-24 17:55:45,14.9832995,0.0002873,70.0002,145.9263,265.5572,94.5259,-2.8784e-05,-4.36e-06,0.0,0 STARLINK-5317,1 55283U 23010Q   23267.74705034 -.00000436  00000-0 -28784-4 0  9997,2 55283  70.0002 145.9263 0002873 265.5572  94.5259 14.98329950 38124,6950.193,96.107,574.055,570.061,0.0
55283.0,STARLINK-5317,PAYLOAD,2023-09-24 21:08:01,14.98331488,0.0002908,70.0001,145.5905,266.2553,93.8273,-3.3413e-05,-4.92e-06,0.0,0 STARLINK-5317,1 55283U 23010Q   23267.88056953 -.00000492  00000-0 -33413-4 0  9998,2 55283  70.0001 145.5905 0002908 266.2553  93.8273 14.98331488 38440,6950.188,96.107,574.074,570.032,0.0
55283.0,STARLINK-5317,PAYLOAD,2023-09-25 01:56:25,14.98333665,0.0002883,70.0002,145.0855,267.6805,92.4024,3.6197e-05,3.39e-06,0.0,0 STARLINK-5317,1 55283U 23010Q   23268.08084613  .00000339  00000-0  36197-4 0  9995,2 55283  70.0002 145.0855 0002883 267.6805  92.4024 14.98333665 38478,6950.182,96.107,574.05,570.043,0.0
55283.0,STARLINK-5317,PAYLOAD,2023-09-25 21:10:02,14.98329292,0.0002763,70.0001,143.0665,256.2322,103.853,1.8077e-05,1.23e-06,0.0,0 STARLINK-5317,1 55283U 23010Q   23268.88196845  .00000123  00000-0  18077-4 0  9992,2 55283  70.0001 143.0665 0002763 256.2322 103.8530 14.98329292 38299,6950.195,96.107,573.98,570.14,0.0
55283.0,STARLINK-5317,PAYLOAD,2023-09-26 01:58:26,14.98332409,0.0002797,70.0,142.5619,258.4272,101.6573,4.2394e-05,4.13e-06,0.0,0 STARLINK-5317,1 55283U 23010Q   23269.08224574  .00000413  00000-0  42394-4 0  9997,2 55283  70.0000 142.5619 0002797 258.4272 101.6573 14.98332409 38620,6950.185,96.107,573.994,570.106,0.0
